     2.100          NAVIGATION                              RINEX VERSION / TYPE
fic2rin                                 09/17/2009 01:35:24 PGM / RUN BY / DATE
                                                            END OF HEADER
18 09  9 16 22  0  0.0  .133402645588D-04  .284217094304D-11  .000000000000D+00
     .930000000000D+02 -.571875000000D+02  .549630037154D-08 -.724130680252D+00
    -.304169952869D-05  .109192363452D-01  .569969415665D-05  .515361858940D+04
     .338400000000D+06  .139698386192D-06 -.132744245564D+01  .206753611565D-06
     .940372773409D+00  .259437500000D+03 -.237863496742D+01 -.877715131787D-08
    -.693600319809D-09  .100000000000D+01  .154900000000D+04  .000000000000D+00
     .240000000000D+01  .000000000000D+00 -.107102096081D-07  .930000000000D+02
     .331206000000D+06  .400000000000D+01
19 09  9 16 22  0  0.0  .104904174805D-04 -.170530256582D-11  .000000000000D+00
     .470000000000D+02 -.262500000000D+02  .435589572626D-08 -.271125587448D+01
    -.122189521790D-05  .583963177633D-02  .133682042360D-04  .515366473389D+04
     .338400000000D+06 -.100582838058D-06  .290850438288D+01  .149011611938D-07
     .958036975251D+00  .122531250000D+03 -.254769094075D+00 -.778782439415D-08
     .196079596074D-09  .100000000000D+01  .154900000000D+04  .000000000000D+00
     .240000000000D+01  .000000000000D+00 -.149011611938D-07  .470000000000D+02
     .331206000000D+06  .400000000000D+01
20 09  9 16 22  0  0.0  .721262767911D-04 -.909494701773D-12  .000000000000D+00
     .111000000000D+03 -.520000000000D+02  .545236997024D-08 -.544789380482D+00
    -.275485217571D-05  .384078477509D-02  .525079667568D-05  .515376914787D+04
     .338400000000D+06 -.931322574615D-07 -.138135365961D+01 -.149011611938D-07
     .940070123454D+00  .264875000000D+03  .132274238073D+01 -.874715006820D-08
    -.591453207829D-09  .100000000000D+01  .154900000000D+04  .000000000000D+00
     .340000000000D+01  .000000000000D+00 -.745058059692D-08  .111000000000D+03
     .331206000000D+06  .400000000000D+01
21 09  9 16 22  0  0.0 -.958517193794D-05 -.227373675443D-11  .000000000000D+00
     .140000000000D+02  .650625000000D+02  .570666627699D-08  .510213504783D+00
     .358931720257D-05  .155501479749D-01  .630691647530D-05  .515375029182D+04
     .338400000000D+06 -.130385160446D-07 -.238598304986D+01  .154599547386D-06
     .933624286959D+00  .240906250000D+03 -.255806835788D+01 -.893072914357D-08
     .336799743347D-09  .100000000000D+01  .154900000000D+04  .000000000000D+00
     .240000000000D+01  .000000000000D+00 -.121071934700D-07  .140000000000D+02
     .331206000000D+06  .400000000000D+01
22 09  9 16 22  0  0.0  .190867576748D-03 -.909494701773D-12  .000000000000D+00
     .480000000000D+02 -.621250000000D+02  .539165315542D-08 -.174640063452D+01
    -.330992043018D-05  .533698836807D-02  .569783151150D-05  .515365312576D+04
     .338400000000D+06  .182539224625D-06 -.132198969767D+01  .167638063431D-07
     .938045990501D+00  .260000000000D+03 -.189083608718D+01 -.855035615665D-08
    -.673599486694D-09  .100000000000D+01  .154900000000D+04  .000000000000D+00
     .240000000000D+01  .000000000000D+00 -.176951289177D-07  .480000000000D+02
     .331206000000D+06  .400000000000D+01
23 09  9 16 22  0  0.0  .388502608985D-03 -.454747350886D-12  .000000000000D+00
     .730000000000D+02  .262500000000D+02  .384801742823D-08  .307495742265D+01
     .131875276566D-05  .646691606380D-02  .131465494633D-04  .515358152199D+04
     .338400000000D+06 -.577419996262D-07 -.301255612825D+00  .316649675369D-07
     .970059034144D+00  .132062500000D+03  .297200426000D+01 -.762924636016D-08
    -.208222959036D-09  .100000000000D+01  .154900000000D+04  .000000000000D+00
     .240000000000D+01  .000000000000D+00 -.200234353542D-07  .730000000000D+02
     .331206000000D+06  .400000000000D+01
24 09  9 16 22  0  0.0  .221142545342D-03  .306954461848D-11  .000000000000D+00
     .400000000000D+01  .575312500000D+02  .533950812623D-08 -.828696578425D+00
     .299327075481D-05  .648307963274D-02  .621005892754D-05  .515366316223D+04
     .338400000000D+06  .335276126862D-07 -.235193055944D+01 -.894069671631D-07
     .950218765066D+00  .254593750000D+03 -.625008418749D+00 -.862750222724D-08
     .535379443560D-09  .100000000000D+01  .154900000000D+04  .000000000000D+00
     .340000000000D+01  .630000000000D+02 -.139698386192D-08  .400000000000D+01
     .331206000000D+06  .400000000000D+01
25 09  9 16 22  0  0.0  .597000122070D-03  .146656020661D-10  .000000000000D+00
     .710000000000D+02  .100187500000D+03  .438553981819D-08 -.291030296751D+00
     .522285699844D-05  .112412713934D-01  .589713454247D-05  .515364286613D+04
     .338400000000D+06 -.221654772758D-06  .645645084338D+00 -.391155481339D-07
     .970982723545D+00  .273750000000D+03 -.121259946580D+01 -.836249118847D-08
     .518235872319D-09  .100000000000D+01  .154900000000D+04  .000000000000D+00
     .340000000000D+01  .000000000000D+00 -.745058059692D-08  .710000000000D+02
     .331206000000D+06  .400000000000D+01
26 09  9 16 22  0  0.0  .625890679657D-04 -.102318153949D-11  .000000000000D+00
     .500000000000D+02  .269062500000D+02  .335371112410D-08  .889965242145D+00
     .171363353729D-05  .196855423274D-01  .146999955177D-04  .515361709213D+04
     .338400000000D+06 -.303611159325D-06 -.249185188432D+00 -.223517417908D-07
     .992527451644D+00  .120718750000D+03  .102693656346D+01 -.769924927606D-08
    -.316084594764D-09  .100000000000D+01  .154900000000D+04  .000000000000D+00
     .240000000000D+01  .000000000000D+00 -.605359673500D-08  .500000000000D+02
     .331206000000D+06  .400000000000D+01
28 09  9 16 22  0  0.0 -.261515378952D-04  .000000000000D+00  .000000000000D+00
     .590000000000D+02 -.901250000000D+02  .466590863954D-08 -.150553306286D+01
    -.442750751972D-05  .150839381386D-01  .469572842121D-05  .515364955139D+04
     .338400000000D+06  .266358256340D-06  .181816943664D+01  .197440385818D-06
     .967365569356D+00  .285218750000D+03 -.201649614053D+01 -.826248702289D-08
    -.253939149013D-09  .100000000000D+01  .154900000000D+04  .000000000000D+00
     .340000000000D+01  .000000000000D+00 -.102445483208D-07  .590000000000D+02
     .331206000000D+06  .400000000000D+01
29 09  9 16 22  0  0.0  .580823980272D-04  .341060513165D-11  .000000000000D+00
     .650000000000D+02 -.531875000000D+02  .437518224390D-08  .536312389027D+00
    -.265613198280D-05  .309560156893D-02  .138152390718D-04  .515362176895D+04
     .338400000000D+06 -.279396772385D-07  .286100216889D+01  .745058059692D-08
     .960587745547D+00  .114343750000D+03 -.127352938206D+01 -.795997442203D-08
     .197508227010D-09  .100000000000D+01  .154900000000D+04  .000000000000D+00
     .240000000000D+01  .000000000000D+00 -.884756445885D-08  .650000000000D+02
     .331206000000D+06  .400000000000D+01
30 09  9 16 22  0  0.0  .177480746061D-03  .306954461848D-11  .000000000000D+00
     .720000000000D+02 -.891562500000D+02  .522093175848D-08 -.101854282521D+01
    -.433251261711D-05  .119184657233D-01  .388547778130D-05  .515366672134D+04
     .338400000000D+06 -.745058059692D-07  .174341791425D+01  .227242708206D-06
     .952873210903D+00  .305750000000D+03  .145268855438D+01 -.882001024597D-08
    -.237867050975D-09  .100000000000D+01  .154900000000D+04  .000000000000D+00
     .340000000000D+01  .000000000000D+00 -.791624188423D-08  .720000000000D+02
     .331206000000D+06  .400000000000D+01
31 09  9 16 22  0  0.0 -.642840750515D-04  .454747350886D-12  .000000000000D+00
     .900000000000D+01  .960000000000D+02  .433946647048D-08  .127708059082D+01
     .500492751598D-05  .704553409014D-02  .547617673874D-05  .515378529549D+04
     .338400000000D+06  .540167093277D-07  .738325728402D+00 -.167638063431D-06
     .974101237718D+00  .276593750000D+03 -.114005903876D+01 -.823462871962D-08
     .531093550750D-09  .100000000000D+01  .154900000000D+04  .000000000000D+00
     .240000000000D+01  .000000000000D+00 -.130385160446D-07  .900000000000D+01
     .331206000000D+06  .400000000000D+01
32 09  9 16 22  0  0.0  .195304397494D-03 -.716227077646D-11  .000000000000D+00
     .870000000000D+02 -.641250000000D+02  .477734185261D-08  .219971529673D+01
    -.329874455929D-05  .132508623647D-01  .611133873463D-05  .515371507263D+04
     .338400000000D+06  .158324837685D-06 -.126936865140D+01  .372529029846D-08
     .962101407865D+00  .257562500000D+03 -.111863444110D+01 -.811890961375D-08
    -.742888087128D-09  .100000000000D+01  .154900000000D+04  .000000000000D+00
     .340000000000D+01  .000000000000D+00 -.325962901115D-08  .870000000000D+02
     .331206000000D+06  .400000000000D+01
32 09  9 16 21 59 44.0  .195302069187D-03 -.716227077646D-11  .000000000000D+00
     .230000000000D+02 -.641250000000D+02  .477734185261D-08  .219738129286D+01
    -.329874455929D-05  .132508642273D-01  .611133873463D-05  .515371507645D+04
     .338384000000D+06  .158324837685D-06 -.126936853144D+01  .372529029846D-08
     .962101404940D+00  .257562500000D+03 -.111863418655D+01 -.811890961375D-08
    -.742888087128D-09  .100000000000D+01  .154900000000D+04  .000000000000D+00
     .240000000000D+01  .000000000000D+00 -.325962901115D-08  .230000000000D+02
     .331236000000D+06  .400000000000D+01
20 09  9 16 21 59 44.0  .721276737750D-04 -.909494701773D-12  .000000000000D+00
     .000000000000D+00 -.520000000000D+02  .545236997024D-08 -.547121867308D+00
    -.275485217571D-05  .384078302886D-02  .525079667568D-05  .515376915169D+04
     .338384000000D+06 -.931322574615D-07 -.138135352210D+01 -.149011611938D-07
     .940070129306D+00  .264875000000D+03  .132274125282D+01 -.874715006820D-08
    -.591453207829D-09  .100000000000D+01  .154900000000D+04  .000000000000D+00
     .240000000000D+01  .000000000000D+00 -.745058059692D-08  .000000000000D+00
     .333576000000D+06  .400000000000D+01
